SL-16 R/B               
1 25400U 98043G   25358.72635979  .00000060  00000+0  44029-4 0  9994
2 25400  98.8144 306.6126 0008985 227.9621 132.0794 14.26028056428307
SL-16 R/B               
1 25407U 98045B   25358.70183648  .00000302  00000+0  17666-3 0  9997
2 25407  71.0120 339.2699 0006245 156.7061 203.4346 14.16177775416486
ISS (ZARYA)             
1 25544U 98067A   25358.53581721  .00013157  00000+0  23993-3 0  9990
2 25544  51.6318  84.0604 0003183 295.6588  64.4071 15.49782856544680
CZ-4B R/B               
1 25732U 99025C   25358.10634968  .00000078  00000+0  58301-4 0  9999
2 25732  98.6753  39.1314 0036782 200.7656 213.7687 14.18246430377455
OKEAN-O                 
1 25860U 99039A   25358.75491933  .00000709  00000+0  10021-3 0  9997
2 25860  97.9585  54.3518 0001115 113.9501 246.1827 14.80181110423307
SL-16 R/B               
1 25861U 99039B   25358.73847834  .00000611  00000+0  84439-4 0  9998
2 25861  98.0109  52.8896 0015764 137.0995 223.1450 14.81602966425760
DELTA 2 R/B             
1 25876U 99041E   25358.04303076  .00000961  00000+0  19439-3 0  9991
2 25876  51.7605 243.3237 0504455 125.0781 239.8540 14.11429701352343
HELIOS 1B               
1 25977U 99064A   25358.71143843  .00001852  00000+0  21164-3 0  9994
2 25977  98.1755 253.7322 0001028  30.6426 329.4849 14.87327480674115
TERRA                   
1 25994U 99068A   25358.79460049  .00000453  00000+0  10161-3 0  9996
2 25994  97.9732  50.0357 0003436  70.5699  21.9478 14.60914783384144
SL-16 R/B               
1 26070U 00006B   25358.83905968  .00000116  00000+0  83487-4 0  9993
2 26070  71.0013 255.2179 0018582 292.2472  67.6680 14.15808776337960
TITAN 4B R/B            
1 26474U 00047B   25358.80790222  .00003547  00000+0  22938-3 0  9992
2 26474  67.9889 250.9606 0038082 129.7821 230.6692 15.08864515381611
ENVISAT                 
1 27386U 02009A   25352.94754304  .00000081  00000+0  39999-4 0  9991
2 27386  98.3609 303.5309 0001126  84.8976 298.2993 14.39001403247569
